GLOBALSTAR M001         
1 25162U 98008A   26017.53241956 -.00000093  00000+0  26471-4 0  9998
2 25162  52.0038  69.3465 0001066   5.3822 138.1487 12.38225812270265
GLOBALSTAR M004         
1 25163U 98008B   26017.53810251 -.00000074  00000+0  16582-3 0  9999
2 25163  51.9999 120.2102 0003535  59.3104 313.5842 12.63412782288782
GLOBALSTAR M002         
1 25164U 98008C   26017.53375515 -.00000057  00000+0  37869-3 0  9991
2 25164  52.0022  62.7632 0001825 169.2336 190.8523 11.61514507208978
GLOBALSTAR M003         
1 25165U 98008D   26017.47488772 -.00000186  00000+0 -10353-2 0  9997
2 25165  51.9902 295.0034 0008556   7.4819 163.8925 12.12034958259200
GLOBALSTAR M014         
1 25306U 98023A   26017.38767982 -.00000084  00000+0 -13050-3 0  9999
2 25306  51.9873 341.8495 0001302  34.2792 135.9679 11.65483761216144
GLOBALSTAR M006         
1 25307U 98023B   26017.32689435 -.00000104  00000+0 -56885-3 0  9996
2 25307  51.9953  42.4791 0003321 137.8807 235.1995 11.58176879241645
GLOBALSTAR M015         
1 25308U 98023C   26017.52214456 -.00000102  00000+0 -64100-3 0  9993
2 25308  51.9803 150.2885 0013693  98.7366 339.8353 11.48863372218712
GLOBALSTAR M008         
1 25309U 98023D   26017.54576675 -.00000056  00000+0  31857-3 0  9990
2 25309  51.9982 296.5703 0002061 277.2295 253.9883 12.36078902264356
